NORAD_CAT_ID,OBJECT_NAME,OBJECT_TYPE,EPOCH,MEAN_MOTION,ECCENTRICITY,INCLINATION,RA_OF_ASC_NODE,ARG_OF_PERICENTER,MEAN_ANOMALY,BSTAR,MEAN_MOTION_DOT,MEAN_MOTION_DDOT,TLE_LINE0,TLE_LINE1,TLE_LINE2,SEMIMAJOR_AXIS,PERIOD,APOGEE,PERIGEE,DECAYED
52353.0,STARLINK-3807,PAYLOAD,2022-07-04 14:00:01,15.356851999999998,0.0001631999999999,53.2175,114.68,38.0831,19.315,-0.022041,-0.00716739,0.0,0 STARLINK-3807,1 52353U 22045Y   22185.58334491 -.00716739  00000-0 -22041-1 0  9991,2 52353  53.2175 114.6800 0001632  38.0831  19.3150 15.35685200  1306,6837.023,93.769,460.004,457.772,0.0
52353.0,STARLINK-3807,PAYLOAD,2022-07-04 22:00:00,15.3517658,0.0001807,53.2176,113.122,36.3746,64.5643,-0.022471,-0.00718719,0.0,0 STARLINK-3807,1 52353U 22045Y   22185.91667824 -.00718719  00000-0 -22471-1 0  9994,2 52353  53.2176 113.1220 0001807  36.3746  64.5643 15.35176580  1302,6838.533,93.8,461.634,459.162,0.0
52353.0,STARLINK-3807,PAYLOAD,2022-07-05 08:00:01,15.34540053,0.0001595,53.2171,111.1766,47.559,196.9445,-0.02297,-0.00719717,0.0,0 STARLINK-3807,1 52353U 22045Y   22186.33334491 -.00719717  00000-0 -22970-1 0  9995,2 52353  53.2171 111.1766 0001595  47.5590 196.9445 15.34540053 12957,6840.424,93.839,463.38,461.198,0.0
52353.0,STARLINK-3807,PAYLOAD,2022-07-05 14:00:01,15.34154469,0.0001631999999999,53.2174,110.0082,46.1674,140.018,-0.023075,-0.00714571,0.0,0 STARLINK-3807,1 52353U 22045Y   22186.58334491 -.00714571  00000-0 -23075-1 0  9992,2 52353  53.2174 110.0082 0001632  46.1674 140.0180 15.34154469  1304,6841.57,93.863,464.552,462.319,0.0
52353.0,STARLINK-3807,PAYLOAD,2022-07-05 22:00:00,15.336451,0.0001639,53.2176,108.4541,47.9688,179.9193,-0.02349,-0.00715621,0.0,0 STARLINK-3807,1 52353U 22045Y   22186.91667824 -.00715621  00000-0 -23490-1 0  9996,2 52353  53.2176 108.4541 0001639  47.9688 179.9193 15.33645100  1309,6843.085,93.894,466.071,463.828,0.0
52353.0,STARLINK-3807,PAYLOAD,2022-07-06 14:00:01,15.32624414,0.000151,53.2174,105.3473,45.6959,263.7618,-0.024222,-0.00714483,0.0,0 STARLINK-3807,1 52353U 22045Y   22187.58334491 -.00714483  00000-0 -24222-1 0  9990,2 52353  53.2174 105.3473 0001510  45.6959 263.7618 15.32624414 13144,6846.123000000001,93.956,469.022,466.954,0.0
52353.0,STARLINK-3807,PAYLOAD,2022-07-06 18:55:02,15.340995199999998,0.0001696999999999,53.2181,104.3845,31.5837,328.5268,-0.0050107,-0.00164454,0.0,0 STARLINK-3807,1 52353U 22045Y   22187.78822868 -.00164454  00000-0 -50107-2 0  9991,2 52353  53.2181 104.3845 0001697  31.5837 328.5268 15.34099520 13180,6841.733,93.866,464.76,462.437,0.0
52353.0,STARLINK-3807,PAYLOAD,2022-07-07 04:19:20,15.33043304,0.000271,53.2195,102.5709,19.6146,340.4961,-0.0069716,-0.00219582,0.0,0 STARLINK-3807,1 52353U 22045Y   22188.18010080 -.00219582  00000-0 -69716-2 0  9990,2 52353  53.2195 102.5709 0002710  19.6146 340.4961 15.33043304 13249,6844.876,93.931,468.596,464.886,0.0
52353.0,STARLINK-3807,PAYLOAD,2022-07-07 14:00:01,15.31094343,0.0001589,53.2174,100.6971,41.1845,26.0305,-0.025416,-0.00714473,0.0,0 STARLINK-3807,1 52353U 22045Y   22188.58334491 -.00714473  00000-0 -25416-1 0  9996,2 52353  53.2174 100.6971 0001589  41.1845  26.0305 15.31094343  1305,6850.683000000001,94.05,473.637,471.459,0.0
52353.0,STARLINK-3807,PAYLOAD,2022-07-07 21:33:12,15.31968576,0.0001756,53.219,99.2348,5.5594,354.5427,-0.0067305,-0.00205319,0.0,0 STARLINK-3807,1 52353U 22045Y   22188.89806688 -.00205319  00000-0 -67305-2 0  9990,2 52353  53.2190  99.2348 0001756   5.5594 354.5427 15.31968576 13355,6848.0769999999975,93.997,471.144,468.739,0.0
52353.0,STARLINK-3807,PAYLOAD,2022-07-08 14:00:01,15.29564645,0.0001758,53.2172,96.0578,41.1698,138.2871,-0.02665,-0.00714318,0.0,0 STARLINK-3807,1 52353U 22045Y   22189.58334491 -.00714318  00000-0 -26650-1 0  9996,2 52353  53.2172  96.0578 0001758  41.1698 138.2871 15.29564645 13455,6855.25,94.144,478.32,475.91,0.0
52353.0,STARLINK-3807,PAYLOAD,2022-07-08 22:00:01,15.29054144,0.0001867,53.2174,94.5148,40.0913,175.6171,-0.027031,-0.00713267,0.0,0 STARLINK-3807,1 52353U 22045Y   22189.91668981 -.00713267  00000-0 -27031-1 0  9993,2 52353  53.2174  94.5148 0001867  40.0913 175.6171 15.29054144  1309,6856.776,94.176,479.921,477.36,0.0
52353.0,STARLINK-3807,PAYLOAD,2022-07-09 14:00:01,15.28033886,0.0001617,53.2173,91.4293,43.3911,242.7931,-0.027876,-0.00721017,0.0,0 STARLINK-3807,1 52353U 22045Y   22190.58334491 -.00721017  00000-0 -27876-1 0  9993,2 52353  53.2173  91.4293 0001617  43.3911 242.7931 15.28033886  1301,6859.8269999999975,94.239,482.802,480.583,0.0
52353.0,STARLINK-3807,PAYLOAD,2022-07-09 16:00:00,15.27906582,0.0001636999999999,53.2172,91.0438,40.4189,344.4102,-0.028019,-0.00721834,0.0,0 STARLINK-3807,1 52353U 22045Y   22190.66667824 -.00721834  00000-0 -28019-1 0  9998,2 52353  53.2172  91.0438 0001637  40.4189 344.4102 15.27906582 13623,6860.208000000001,94.247,483.196,480.95,0.0
52353.0,STARLINK-3807,PAYLOAD,2022-07-09 20:00:01,15.27652473,0.0001878,53.2175,90.2746,39.3156,182.6877,-0.028272,-0.00722673,0.0,0 STARLINK-3807,1 52353U 22045Y   22190.83334491 -.00722673  00000-0 -28272-1 0  9991,2 52353  53.2175  90.2746 0001878  39.3156 182.6877 15.27652473  1307,6860.969,94.262,484.12300000000016,481.546,0.0
52353.0,STARLINK-3807,PAYLOAD,2022-07-10 14:00:01,15.26503781,0.0001601,53.2172,86.8115,40.0546,347.3416,-0.029212,-0.0072105,0.0,0 STARLINK-3807,1 52353U 22045Y   22191.58334491 -.00721050  00000-0 -29212-1 0  9997,2 52353  53.2172  86.8115 0001601  40.0546 347.3416 15.26503781  1306,6864.411,94.333,487.375,485.177,0.0
52353.0,STARLINK-3807,PAYLOAD,2022-07-10 22:00:00,15.25996293,0.0001738,53.2174,85.2762,39.2481,20.6578,-0.029827,-0.00724726,0.0,0 STARLINK-3807,1 52353U 22045Y   22191.91667824 -.00724726  00000-0 -29827-1 0  9998,2 52353  53.2174  85.2762 0001738  39.2481  20.6578 15.25996293 13810,6865.932,94.365,488.991,486.604,0.0
52353.0,STARLINK-3807,PAYLOAD,2022-07-11 14:00:01,15.24975849,0.0001842,53.2173,82.2047,37.3339,85.7584,-0.030756,-0.00724616,0.0,0 STARLINK-3807,1 52353U 22045Y   22192.58334491 -.00724616  00000-0 -30756-1 0  9994,2 52353  53.2173  82.2047 0001842  37.3339  85.7584 15.24975849  1302,6868.995,94.428,492.125,489.595,0.0
52353.0,STARLINK-3807,PAYLOAD,2022-07-11 22:00:00,15.24464626,0.0002125,53.2173,80.673,32.603,121.162,-0.031113,-0.00722054,0.0,0 STARLINK-3807,1 52353U 22045Y   22192.91667824 -.00722054  00000-0 -31113-1 0  9992,2 52353  53.2173  80.6730 0002125  32.6030 121.1620 15.24464626  1306,6870.531,94.459,493.856,490.936,0.0
52353.0,STARLINK-3807,PAYLOAD,2022-07-12 14:00:01,15.23446248,0.0001864,53.2172,77.6085,39.1539,174.1198,-0.032224,-0.00725113,0.0,0 STARLINK-3807,1 52353U 22045Y   22193.58334491 -.00725113  00000-0 -32224-1 0  9990,2 52353  53.2172  77.6085 0001864  39.1539 174.1198 15.23446248  1306,6873.592,94.523,496.73800000000006,494.176,0.0
52353.0,STARLINK-3807,PAYLOAD,2022-07-12 22:00:00,15.22934013,0.0002009,53.2173,76.0806,36.0757,206.0327,-0.032502,-0.00720617,0.0,0 STARLINK-3807,1 52353U 22045Y   22193.91667824 -.00720617  00000-0 -32502-1 0  9999,2 52353  53.2173  76.0806 0002009  36.0757 206.0327 15.22934013 14114,6875.1330000000025,94.554,498.379,495.617,0.0
52353.0,STARLINK-3807,PAYLOAD,2022-07-13 14:00:01,15.21914367,0.0001686999999999,53.2173,73.0232,41.9617,255.9793,-0.033553,-0.00721624,0.0,0 STARLINK-3807,1 52353U 22045Y   22194.58334491 -.00721624  00000-0 -33553-1 0  9990,2 52353  53.2173  73.0232 0001687  41.9617 255.9793 15.21914367  1301,6878.204000000002,94.618,501.229,498.908,0.0
52353.0,STARLINK-3807,PAYLOAD,2022-07-13 22:00:00,15.21405666,0.0001969,53.2173,71.499,32.9494,291.9864,-0.034129,-0.00722995,0.0,0 STARLINK-3807,1 52353U 22045Y   22194.91667824 -.00722995  00000-0 -34129-1 0  9998,2 52353  53.2173  71.4990 0001969  32.9494 291.9864 15.21405666 14265,6879.736999999999,94.649,502.956,500.247,0.0
52353.0,STARLINK-3807,PAYLOAD,2022-07-14 14:00:01,15.203838199999998,0.0001818,53.2172,68.4487,35.1639,341.9287,-0.035037,-0.00720409,0.0,0 STARLINK-3807,1 52353U 22045Y   22195.58334491 -.00720409  00000-0 -35037-1 0  9990,2 52353  53.2172  68.4487 0001818  35.1639 341.9287 15.20383820  1302,6882.819,94.713,505.935,503.4330000000001,0.0
52353.0,STARLINK-3807,PAYLOAD,2022-07-14 22:00:00,15.19877199,0.0001958,53.2173,66.928,33.5384,8.7099,-0.035827,-0.00725454,0.0,0 STARLINK-3807,1 52353U 22045Y   22195.91667824 -.00725454  00000-0 -35827-1 0  9998,2 52353  53.2173  66.9280 0001958  33.5384   8.7099 15.19877199 14422,6884.348000000001,94.744,507.561,504.865,0.0
52353.0,STARLINK-3807,PAYLOAD,2022-07-15 14:00:01,15.18855069,0.0001929,53.2173,63.8847,35.2282,55.5002,-0.036726,-0.00722053,0.0,0 STARLINK-3807,1 52353U 22045Y   22196.58334491 -.00722053  00000-0 -36726-1 0  9994,2 52353  53.2173  63.8847 0001929  35.2282  55.5002 15.18855069  1309,6887.437,94.808,510.63,507.973,0.0
52353.0,STARLINK-3807,PAYLOAD,2022-07-15 22:00:00,15.18346857,0.0002233,53.2173,62.3679,30.1959,83.8505,-0.037422,-0.00724798,0.0,0 STARLINK-3807,1 52353U 22045Y   22196.91667824 -.00724798  00000-0 -37422-1 0  9992,2 52353  53.2173  62.3679 0002233  30.1959  83.8505 15.18346857  1302,6888.973000000001,94.84,512.377,509.3,0.0
52353.0,STARLINK-3807,PAYLOAD,2022-07-16 06:00:00,15.17835768,0.000176,53.2173,60.8495,42.9608,93.7936,-0.037863,-0.0072266,0.0,0 STARLINK-3807,1 52353U 22045Y   22197.25001157 -.00722660  00000-0 -37863-1 0  9996,2 52353  53.2173  60.8495 0001760  42.9608  93.7936 15.17835768 14627,6890.52,94.872,513.5980000000002,511.172,0.0
52353.0,STARLINK-3807,PAYLOAD,2022-07-16 14:00:01,15.17326092,0.0001869,53.2174,59.3318,41.2113,117.6378,-0.038453,-0.00723175,0.0,0 STARLINK-3807,1 52353U 22045Y   22197.58334491 -.00723175  00000-0 -38453-1 0  9990,2 52353  53.2174  59.3318 0001869  41.2113 117.6378 15.17326092  1300,6892.063,94.904,515.216,512.64,0.0
